GLOBALSTAR M075         
1 37192U 10054E   24208.70516574 -.00000087  00000+0  94910-4 0  9995
2 37192  51.9950  92.5588 0000624  58.9618 306.2022 12.62262086634901
GLOBALSTAR M073         
1 37193U 10054F   24208.89736583 -.00000094  00000+0  55288-4 0  9993
2 37193  52.0083   5.5451 0000846  84.3952  73.5932 12.62267341636752
GLOBALSTAR M083         
1 37739U 11033A   24208.82978181 -.00000081  00000+0  12518-3 0  9996
2 37739  51.9876 314.9266 0000545 130.6697  21.6618 12.62262736605769
GLOBALSTAR M088         
1 37740U 11033B   24208.81052606 -.00000099  00000+0  29256-4 0  9999
2 37740  51.9704 220.7493 0000158 213.2436 331.7940 12.62265624601304
GLOBALSTAR M091         
1 37741U 11033C   24209.18234005 -.00000088  00000+0  89111-4 0  9990
2 37741  51.9973 182.5912 0000187 265.4261 108.4292 12.62264997602404
GLOBALSTAR M085         
1 37742U 11033D   24209.03645421 -.00000076  00000+0  15385-3 0  9991
2 37742  51.9863 134.3598 0000264  23.1494 108.8861 12.62263704603122
GLOBALSTAR M081         
1 37743U 11033E   24208.88143086 -.00000084  00000+0  11127-3 0  9993
2 37743  51.9951 137.4189 0000454   0.6155  26.0248 12.62267136602768
GLOBALSTAR M089         
1 37744U 11033F   24208.76633435 -.00000079  00000+0  13959-3 0  9992
2 37744  51.9931  92.0613 0000984  48.6890 353.1882 12.62266392603594
